[{"OBJECT_NAME":"STARLINK-30092","OBJECT_ID":"2023-107L","EPOCH":"2026-03-09T02:06:44.569440","MEAN_MOTION":15.26757276,"ECCENTRICITY":0.00023812,"INCLINATION":43.0022,"RA_OF_ASC_NODE":339.6211,"ARG_OF_PERICENTER":265.1319,"MEAN_ANOMALY":94.926,"EPHEMERIS_TYPE":0,"CLASSIFICATION_TYPE":"U","NORAD_CAT_ID":57467,"ELEMENT_SET_NO":999,"REV_AT_EPOCH":14505,"BSTAR":-0.00015913035,"MEAN_MOTION_DOT":-4.529e-5,"MEAN_MOTION_DDOT":0},{"OBJECT_NAME":"PROTOMETHEE","OBJECT_ID":"2023-174BT","EPOCH":"2026-03-09T23:28:08.029344","MEAN_MOTION":15.30202663,"ECCENTRICITY":0.00088339,"INCLINATION":97.3826,"RA_OF_ASC_NODE":147.9552,"ARG_OF_PERICENTER":148.5993,"MEAN_ANOMALY":211.5776,"EPHEMERIS_TYPE":0,"CLASSIFICATION_TYPE":"U","NORAD_CAT_ID":58321,"ELEMENT_SET_NO":999,"REV_AT_EPOCH":12979,"BSTAR":0.00015715731,"MEAN_MOTION_DOT":4.52e-5,"MEAN_MOTION_DDOT":0}]
